[{"OBJECT_NAME":"EXCITE","OBJECT_ID":"2018-099BP","EPOCH":"2026-03-09T16:45:15.060672","MEAN_MOTION":15.06036758,"ECCENTRICITY":0.0017626,"INCLINATION":97.4107,"RA_OF_ASC_NODE":111.3606,"ARG_OF_PERICENTER":337.4818,"MEAN_ANOMALY":22.5634,"EPHEMERIS_TYPE":0,"CLASSIFICATION_TYPE":"U","NORAD_CAT_ID":43819,"ELEMENT_SET_NO":999,"REV_AT_EPOCH":39677,"BSTAR":0.00019631388,"MEAN_MOTION_DOT":2.813e-5,"MEAN_MOTION_DDOT":0},{"OBJECT_NAME":"CZ-6A DEB","OBJECT_ID":"2024-140FD","EPOCH":"2026-03-09T14:27:44.906112","MEAN_MOTION":14.99694865,"ECCENTRICITY":0.0039811,"INCLINATION":89.0027,"RA_OF_ASC_NODE":280.8171,"ARG_OF_PERICENTER":188.2594,"MEAN_ANOMALY":171.7991,"EPHEMERIS_TYPE":0,"CLASSIFICATION_TYPE":"U","NORAD_CAT_ID":60778,"ELEMENT_SET_NO":999,"REV_AT_EPOCH":8450,"BSTAR":0.0048584,"MEAN_MOTION_DOT":0.00061368,"MEAN_MOTION_DDOT":0}]
